     2.10           N: GPS NAV DATA                         RINEX VERSION / TYPE
teqc  2009Mar23                         20140526 00:19:16UTCPGM / RUN BY / DATE
    16                                                      LEAP SECONDS
Linux 2.4.20-8|Pentium IV|gcc -static|Linux|486/DX+         COMMENT
teqc  2009Mar23                         20140525 02:05:03UTCCOMMENT
                                                            END OF HEADER
24 14  5 25 14  0  0.0-2.897717058659D-05-6.821210263297D-13 0.000000000000D+00
    7.900000000000D+01-5.718750000000D+01 5.000922594214D-09 2.244040030715D+00
   -2.978369593620D-06 2.081267768517D-03 3.116205334663D-06 5.153729141235D+03
    5.040000000000D+04-1.322478055954D-07 1.431852591071D+00 5.029141902924D-08
    9.565637699320D-01 3.170625000000D+02 3.467430097296D-01-8.490353657309D-09
   -2.628680923683D-10 1.000000000000D+00 1.794000000000D+03 0.000000000000D+00
    2.800000000000D+00 0.000000000000D+00 2.793967723846D-09 7.900000000000D+01
    4.587000000000D+04 4.000000000000D+00
25 14  5 25 14  0  0.0 2.428051084280D-05 4.547473508865D-13 0.000000000000D+00
    8.000000000000D+01-6.409375000000D+01 3.920877606005D-09 2.169837472726D-01
   -3.308057785034D-06 3.630025195889D-03 1.136213541031D-05 5.153615013123D+03
    5.040000000000D+04-1.676380634308D-08 2.487347436668D+00 7.450580596924D-08
    9.764257399371D-01 1.645937500000D+02 6.806966922181D-01-7.789610182817D-09
   -1.132190017402D-10 1.000000000000D+00 1.794000000000D+03 0.000000000000D+00
    2.000000000000D+00 0.000000000000D+00 5.122274160385D-09 8.000000000000D+01
    4.587000000000D+04 4.000000000000D+00
31 14  5 25 14  0  0.0 3.341860137880D-04-1.136868377216D-13 0.000000000000D+00
    1.000000000000D+02-6.725000000000D+01 4.489115561111D-09 1.320552354329D+00
   -3.499910235405D-06 7.977809291333D-03 2.905726432800D-06 5.153551544189D+03
    5.040000000000D+04 1.639127731323D-07 1.472648910012D+00 3.166496753693D-08
    9.781305266511D-01 3.274375000000D+02-6.358789372872D-01-8.267487231171D-09
   -4.332323315799D-10 1.000000000000D+00 1.794000000000D+03 0.000000000000D+00
    2.000000000000D+00 0.000000000000D+00-1.303851604462D-08 1.000000000000D+02
    4.587000000000D+04 4.000000000000D+00
32 14  5 25 14  0  0.0-4.213326610625D-04 8.185452315956D-12 0.000000000000D+00
    5.800000000000D+01 3.800000000000D+01 4.491258507516D-09 1.996272339682D+00
    1.911073923111D-06 1.138941093814D-02 1.264922320843D-05 5.153746194839D+03
    5.040000000000D+04 2.048909664154D-08-5.667432633603D-01 2.104789018631D-07
    9.479590862095D-01 1.245312500000D+02-1.545540561739D-01-7.947831059065D-09
   -2.385813664430D-10 1.000000000000D+00 1.794000000000D+03 0.000000000000D+00
    2.000000000000D+00 0.000000000000D+00-3.259629011154D-09 5.800000000000D+01
    4.587000000000D+04 4.000000000000D+00
19 14  5 25 14  0  0.0-4.589017480612D-04-2.160049916711D-12 0.000000000000D+00
    6.200000000000D+01 2.787500000000D+01 4.438399162855D-09-2.870915235337D+00
    1.419335603714D-06 1.035760366358D-02 7.599592208862D-06 5.153612062454D+03
    5.040000000000D+04-5.587935447693D-08-2.652695111628D+00-1.024454832077D-07
    9.658947105574D-01 2.364687500000D+02 4.319610424198D-01-7.879971089568D-09
    5.400224941045D-10 1.000000000000D+00 1.794000000000D+03 0.000000000000D+00
    2.000000000000D+00 0.000000000000D+00-1.490116119385D-08 6.200000000000D+01
    4.524000000000D+04 4.000000000000D+00
20 14  5 25 14  0  0.0 1.930724829435D-04 3.865352482535D-12 0.000000000000D+00
    1.600000000000D+01 1.171875000000D+01 5.159500628197D-09 2.074196204312D-02
    3.892928361893D-07 5.762226879597D-03 1.157075166702D-05 5.153795282364D+03
    5.040000000000D+04-9.499490261078D-08-7.138354995995D-01 5.774199962616D-08
    9.269175536538D-01 1.422500000000D+02 1.333657607507D+00-8.333918569731D-09
   -2.228664261384D-10 1.000000000000D+00 1.794000000000D+03 0.000000000000D+00
    2.000000000000D+00 0.000000000000D+00-8.381903171539D-09 1.600000000000D+01
    4.683000000000D+04 4.000000000000D+00
 1 14  5 25 13 59 44.0 1.334305852652D-05 1.136868377216D-12 0.000000000000D+00
    3.000000000000D+00-3.396875000000D+01 4.823772358052D-09 2.067223353042D+00
   -1.790001988411D-06 3.052386338823D-03 5.487352609634D-06 5.153672979355D+03
    5.038400000000D+04-1.676380634308D-08-1.693975079444D+00 7.450580596924D-09
    9.604438265919D-01 2.715625000000D+02 3.076185399012D-01-8.258201130082D-09
   -2.442958901901D-10 1.000000000000D+00 1.794000000000D+03 0.000000000000D+00
    2.000000000000D+00 0.000000000000D+00 5.587935447693D-09 3.000000000000D+00
    4.920000000000D+04 4.000000000000D+00
 1 14  5 25 15 59 44.0 1.335190609097D-05 1.136868377216D-12 0.000000000000D+00
    4.000000000000D+00-3.087500000000D+01 4.769127224720D-09 3.117579438486D+00
   -1.536682248116D-06 3.053297870792D-03 5.979090929031D-06 5.153670991898D+03
    5.758400000000D+04 4.842877388000D-08-1.694034391995D+00-2.793967723846D-08
    9.604424455973D-01 2.647812500000D+02 3.074464275892D-01-8.183555163635D-09
   -2.332240004300D-10 1.000000000000D+00 1.794000000000D+03 0.000000000000D+00
    2.000000000000D+00 0.000000000000D+00 5.587935447693D-09 4.000000000000D+00
    5.397000000000D+04 4.000000000000D+00
 6 14  5 25 16  0  0.0 4.808418452740D-06 5.570655048359D-12 0.000000000000D+00
    1.230000000000D+02-3.121875000000D+01 4.640907598144D-09 1.015854152940D+00
   -1.529231667519D-06 3.429577918723D-04 5.822628736496D-06 5.181226949692D+03
    5.760000000000D+04 9.872019290924D-08-1.702820176198D+00-5.587935447693D-09
    9.603812356419D-01 2.624375000000D+02 2.447289589995D+00-7.955688529218D-09
   -2.278666344171D-10 1.000000000000D+00 1.794000000000D+03 0.000000000000D+00
    2.800000000000D+00 6.300000000000D+01 6.053596735001D-09 1.230000000000D+02
    5.307000000000D+04 4.000000000000D+00
12 14  5 25 16  0  0.0 2.072351053357D-04 2.501110429876D-12 0.000000000000D+00
    8.000000000000D+01-6.365625000000D+01 3.673010138473D-09 2.034643914332D+00
   -3.380700945854D-06 5.149010219611D-03 1.148506999016D-05 5.153626066208D+03
    5.760000000000D+04-1.378357410431D-07 2.529686746510D+00 2.980232238770D-08
    9.877437124503D-01 1.737500000000D+02 4.380684386688D-01-7.561029232931D-09
   -9.107522222000D-11 1.000000000000D+00 1.794000000000D+03 0.000000000000D+00
    2.000000000000D+00 0.000000000000D+00-1.210719347000D-08 8.000000000000D+01
    5.307000000000D+04 4.000000000000D+00
14 14  5 25 16  0  0.0 1.696613617241D-04-3.410605131648D-12 0.000000000000D+00
    7.400000000000D+01 9.837500000000D+01 4.586976780280D-09-1.112770859167D+00
    5.353242158890D-06 7.518735830672D-03 4.559755325317D-06 5.153664062500D+03
    5.760000000000D+04 4.842877388000D-08 4.699030384906D-01 1.341104507446D-07
    9.704522738382D-01 2.983437500000D+02-2.002634751810D+00-8.289273852957D-09
    3.743013054375D-10 1.000000000000D+00 1.794000000000D+03 0.000000000000D+00
    2.800000000000D+00 0.000000000000D+00-9.313225746155D-09 7.400000000000D+01
    5.307000000000D+04 4.000000000000D+00
20 14  5 25 16  0  0.0 1.931008882821D-04 3.865352482535D-12 0.000000000000D+00
    6.700000000000D+01 1.159375000000D+01 5.018780480923D-09 1.070796809248D+00
    5.662441253662D-07 5.763630149886D-03 1.181662082672D-05 5.153797868729D+03
    5.760000000000D+04-9.313225746155D-08-7.138953022277D-01-2.793967723846D-08
    9.269156825816D-01 1.303437500000D+02 1.333711890545D+00-8.332132781060D-09
   -2.696540893180D-10 1.000000000000D+00 1.794000000000D+03 0.000000000000D+00
    2.000000000000D+00 0.000000000000D+00-8.381903171539D-09 6.700000000000D+01
    5.307000000000D+04 4.000000000000D+00
23 14  5 25 16  0  0.0-2.338271588087D-05-3.069544618484D-12 0.000000000000D+00
    5.200000000000D+01 1.105937500000D+02 4.904847163715D-09-2.150418262192D+00
    5.390495061874D-06 9.388912003487D-03 5.807727575302D-06 5.153785713196D+03
    5.760000000000D+04 6.705522537231D-08 4.046148449638D-01-2.048909664154D-07
    9.521398178852D-01 2.657812500000D+02-2.787648420838D+00-8.350347825504D-09
    4.950206195958D-10 1.000000000000D+00 1.794000000000D+03 0.000000000000D+00
    2.000000000000D+00 0.000000000000D+00-2.002343535423D-08 5.200000000000D+01
    5.307000000000D+04 4.000000000000D+00
25 14  5 25 16  0  0.0 2.428377047181D-05 4.547473508865D-13 0.000000000000D+00
    8.100000000000D+01-6.403125000000D+01 4.016953036503D-09 1.267501006790D+00
   -3.254041075706D-06 3.629131941125D-03 1.105107367039D-05 5.153612361908D+03
    5.760000000000D+04-3.352761268616D-08 2.487291405442D+00 7.264316082001D-08
    9.764248914446D-01 1.751875000000D+02 6.803927651354D-01-7.784967132272D-09
   -1.196478409557D-10 1.000000000000D+00 1.794000000000D+03 0.000000000000D+00
    2.000000000000D+00 0.000000000000D+00 5.122274160385D-09 8.100000000000D+01
    5.307000000000D+04 4.000000000000D+00
31 14  5 25 15 59 44.0 3.341827541590D-04-1.136868377216D-13 0.000000000000D+00
    2.400000000000D+01-6.640625000000D+01 4.556618372874D-09 2.368416252032D+00
   -3.186985850334D-06 7.977531640790D-03 3.363937139511D-06 5.153552518845D+03
    5.758400000000D+04 1.508742570877D-07 1.472589334137D+00 1.844018697739D-07
    9.781274720782D-01 3.232500000000D+02-6.358210730255D-01-8.255701025942D-09
   -3.682296239562D-10 1.000000000000D+00 1.794000000000D+03 0.000000000000D+00
    2.000000000000D+00 0.000000000000D+00-1.303851604462D-08 2.400000000000D+01
    5.307000000000D+04 4.000000000000D+00
